ORBCOMM FM33            
1 25983U 99065D   25067.55490907  .00002052  00000+0  69573-3 0  9996
2 25983  45.0275 117.2829 0010749 272.6761  87.2858 14.39585669321565
ORBCOMM FM36            
1 25984U 99065E   25067.73456148  .00002490  00000+0  86764-3 0  9993
2 25984  45.0375 206.8130 0004422 171.8278 188.2643 14.37682422319969
ORBCOMM FM35            
1 25985U 99065F   25067.71332206  .00001951  00000+0  70335-3 0  9998
2 25985  45.0389 211.1680 0004501 237.9480 122.0932 14.36717350320339
ORBCOMM FM34            
1 25986U 99065G   25067.75130452  .00001902  00000+0  68616-3 0  9997
2 25986  45.0383 211.4885 0005107 199.1254 160.9403 14.36763639320453
ORBCOMM FM38            
1 33060U 08031A   25067.48682571  .00003149  00000+0  43332-3 0  9999
2 33060  48.4398  74.9427 0006134 322.6084  37.4404 14.80592125899827
ORBCOMM FM29            
1 33062U 08031C   25067.48071951  .00003069  00000+0  42619-3 0  9993
2 33062  48.4381  90.3337 0007195 307.9695 200.8975 14.80270113899228
